MALLIGYONG-1            
1 58400U 23179A   24047.80684086  .00008624  00000+0  37482-3 0  9992
2 58400  97.4210 296.4514 0014865 338.5745  21.4868 15.22428110 13269
